#dP2020 11  9  0  0  0.00000000      96 __u+U ITR00 FIT  IAC
## 2131  86400.00000000   900.00000000 59162 0.0000000000000
+  116   C01C02C03C04C05C06C07C08C09C10C11C12C13C14C16C19C20
+        C21C22C23C24C25C26C27C28C29C30C32C33C34C35C36C37C40
+        C60E01E02E03E04E05E07E08E09E11E12E13E14E15E18E19E21
+        E24E25E26E27E30E31E33E36G01G02G03G04G05G06G07G08G09
+        G10G11G12G13G15G16G17G18G19G20G21G22G23G24G25G26G27
+        G28G29G30G31G32J01J02J03J07R01R02R03R04R05R07R08R09
+        R11R12R13R14R15R16R17R18R19R20R21R22R23R24  0  0  0
++        13 13 13 13 13  8  8  8  8  8  8  8  8  8  8  8  8
++         8  8  8  8  8  8  8  7  8  8  8  8  9  8  8  8 10
++         0  5  5  5  5  5  5  6  6  5  5  4  5  4  6  5  4
++         5  5  5  5  5  6  4  5  4  4  4  3  4  4  4  4  3
++         4  4  4  4  4  3  4  4  4  4  4  4  4  4  4  3  4
++         4  3  4  4  4  9  8  8 13  7  6  6  6  6  6  6  5
++         6  6  7  6  6  6  5  5  6  6  6  7  6  6  0  0  0
%c M  cc GPS ccc cccc cccc cccc cccc ccccc ccccc ccccc ccccc
%c cc cc ccc ccc cccc cccc cccc cccc ccccc ccccc ccccc ccccc
%f  0.0000000  0.000000000  0.00000000000  0.000000000000000
%f  0.0000000  0.000000000  0.00000000000  0.000000000000000
%i    0    0    0    0      0      0      0      0         0
%i    0    0    0    0      0      0      0      0         0
/* INFORMATION & ANALYSIS CENTER (IAC)            RAPID DATA
/* S/V CLOCKS ARE ALIGNED TO GNSS TIME                      
/* G:C1WC2W R:C1PC2P E:C1XC5X C:C2IC6I J:C1CC2S             
/* PCV:IGS14_2129 OL/AL:FES2004  NONE     YN ORB:CoN CLK:CoN
*  2020 11 09 23 15  0.00000000
PC01 -34313.459722  24450.325886   -432.477244   -741.286727
PC02   4359.720765  41961.383109    644.170858    751.281598
PC03 -14815.414339  39453.793258   1289.411369    215.638359
PC04 -39597.811152  14406.370714    224.494377     41.722488
PC05  21859.552629  36068.782927    590.272929   -305.699735
PC06 -25635.591818  30904.742642 -13180.418509     99.466109
PC07 -10405.892626  34430.395021 -21350.323623    -24.788941
PC08 -11864.089844  18217.974062  36199.578996   -683.234598
PC09 -11963.934253  30772.765596 -26204.867751    927.121903
PC10    988.533997  40799.439186  -9444.822158   -145.367851
PC11  26010.042301  -6754.959205   7698.384523   -741.409828
PC12  17131.947327   6961.164618  20950.450441    601.123198
PC13   2942.304969  24632.643200  34235.161148    736.305621
PC14  15979.092368  -3628.049392 -22577.821760    215.726213
PC16 -22981.919252  31594.733420 -16025.166915   -607.641336
PC19 -14198.442174  14263.197557  19340.827975    612.605417
PC20 -15296.212321  -6255.611921  22495.076884   -885.167119
PC21   7268.523968  23931.044821 -12353.623536   -718.446440
PC22  -4862.174255  27036.602233   4829.231856   -788.189336
PC23   1765.898114 -17454.058896  21710.457640   -917.782232
PC24  24783.856160  11203.582833   6312.631869   -721.246850
PC25  18444.903455  -5354.582546  20251.554790   -821.357920
PC26  17225.235257  19491.990280 -10156.908937    898.810059
PC27  -8168.968698 -13645.784988 -22944.336323    430.142699
PC28  11829.472391 -18697.844771 -17007.493608   -147.868534
PC29 -24274.496096  13713.414134   1158.234747    309.085109
PC30 -23093.165620    -91.547902 -15677.427213    401.631796
PC32  -7441.713668 -23907.690744  12331.116296   -890.195925
PC33  14169.280550 -14271.576054 -19356.434398   -832.459885
PC34  23374.639883   -286.132442  15225.360720   -812.519022
PC35 -11406.775564  19144.003989  16814.694934   -567.323824
PC36 -18740.322548   4682.192113 -20109.312217   -843.165911
PC37 -16133.045822 -20020.528661  10843.629944   -879.424808
PC40  -4685.261258  39406.315108 -13974.168181     99.423470
PC60      0.000000      0.000000      0.000000 999999.999999
PE01  14082.269255  25999.060955  -1440.644971   -979.398178
PE02 -14129.617556 -25965.506030   1355.610933    175.255513
PE03  -4676.253708 -20994.469837  20332.852279   -363.264673
PE04  17585.120790   2960.957193 -23629.403038   -644.602726
PE05  11144.625570 -26950.419768   5068.415776   -330.740161
PE07 -20321.899810  17128.964442  13016.909205   -459.827978
PE08 -17590.975606  -2501.580168  23665.649038   6094.024749
PE09  20140.832311 -17404.945427 -12967.250671   5870.485252
PE11  26360.968419  -7691.839239 -11048.416061   6859.764888
PE12  27961.215446   4992.184550   8326.092040   5514.085303
PE13 -26502.940219   7575.723941  10787.259836    406.103758
PE14 -22546.192234  -2437.418542 -21067.709221  -1220.010490
PE15 -28028.743301  -4771.487573  -8211.289088    844.499632
PE18  22370.426514 -10867.923172   8710.807376  -1332.746901
PE19   2759.096724  22387.833934 -19171.652406    124.443645
PE21   -237.803903  23457.933591 -18046.857948   -631.116161
PE24  15236.039444  -6619.924604  24496.578921   -574.765809
PE25    390.838542 -23367.538364  18175.591910   -519.922121
PE26  -8797.529202  15680.677392  23517.070521   2514.310567
PE27 -14856.315765   7217.294141 -24552.371520     96.032864
PE30 -20606.793353 -13827.365150 -16124.082743   3436.700618
PE31  20673.683218  13163.456741  16614.881716   -475.570178
PE33  13071.079435  14312.563840  22380.429525   -463.270642
PE36   9424.425984 -15451.805541 -23415.949471    483.081709
PG01 -17740.835119 -14060.675385 -14396.032830    809.023550
PG02  -4084.887079  15029.036776  22164.505182   -540.540245
PG03 -13006.082823 -21432.371192   8840.243192      0.351123
PG04  -9426.336933 -12069.462007  21700.896148   -153.798795
PG05    968.865599  24428.148695   9997.759303    -25.495794
PG06 -19238.622034   7206.772893  16912.368006     -0.322860
PG07 -26097.021228  -6210.528930     12.804012   -411.083999
PG08   -864.401451 -18502.346048 -18918.359071    -54.543346
PG09 -18193.198657   -253.171606  19291.347101   -287.505883
PG10  13903.933245  -5842.247476 -21761.063741   -500.788225
PG11  -8489.312341 -14511.296804 -20979.501929   -113.100538
PG12  10032.697939  23749.154067   6468.688944     42.506366
PG13  -9145.470227  20442.624451 -14323.942083     63.288703
PG15   4253.313392  18229.027063 -19061.338102   -191.101632
PG16   1107.876298 -24570.168352   9185.941123   -234.245748
PG17 -21077.344074  14892.205102  -5766.120913    351.744188
PG18  26024.002733   5024.351964  -2145.853975    319.259692
PG19 -20002.211780  17408.547680   -114.281189    -80.425315
PG20  18103.098355   6446.388982 -18511.801450    526.084874
PG21  -8219.661471 -15236.574018 -19516.202012     66.611812
PG22 -10740.733211 -24377.069206    819.857670   -732.169043
PG23  16591.763889   5445.011236 -20050.376250     98.261271
PG24  14861.711143  14831.191976 -16707.787975      6.634209
PG25  15915.707354  14025.060068  15906.794841     19.434253
PG26   8150.769443 -17107.405190  18476.628805    309.199554
PG27  10020.330639 -21832.065071 -11084.924729    -10.094083
PG28 -13286.033642   7063.607852 -21326.546642    657.464633
PG29  16453.369180   3286.108385  20566.082630   -233.217906
PG30 -24833.603988    859.583408  -9626.178928   -332.781478
PG31  17901.915159  -8428.798054  17873.736269    -80.428867
PG32  20417.353000 -15487.964739  -6567.652103    365.951172
PJ01 -29588.704661  25738.555952  20396.523443   -336.857838
PJ02 -19715.949275  21176.834266 -26253.212315     -6.539322
PJ03 -29885.430233  29399.316933   9978.662806     -2.902389
PJ07 -25367.642884  33678.172109    -23.715841      0.010097
PR01  -5732.749906 -16061.683701  18966.606885     70.368382
PR02 -12133.165731   6281.096901  21585.983067    453.709972
PR03 -10071.617473  21394.590505   9668.864595     25.292843
PR04  -2370.074643  24233.817919  -7598.030225     60.992694
PR05   6568.207819  13527.380197 -20609.737755     60.818522
PR07   9852.831545 -21690.031271  -9027.032963    -41.249571
PR08   2282.630101 -24220.048955   7681.956542    -55.617443
PR09  17804.324696   4973.547000  17562.570568      6.885269
PR11  -9777.524863 -18823.934633  14222.347108    -44.133193
PR12 -18949.841724 -16961.193422  -1783.019384    178.854188
PR13 -17855.233094  -5371.108079 -17417.598402    -46.392852
PR14  -5973.582012   9521.892537 -22880.449918     57.554397
PR15   9062.756380  18587.656598 -14911.389688    106.800980
PR16  19577.631572  16250.764633   2590.370471     -8.040552
PR17 -19018.137268  11344.160142  12629.448488    372.690078
PR18  -3369.382370  11458.330735  22563.121837     55.629603
PR19  13496.712008   6115.988026  20770.121159   -119.040132
PR20  24666.544837  -3804.393210   5196.951655   -426.197370
PR21  18363.077676 -11460.299699 -13521.190959   -165.029025
PR22   2023.640430 -11136.464717 -22859.523731    -81.065374
PR23 -19566.362517  -2168.069108 -16220.133961    343.840548
PR24 -24731.843543   4361.501853  -4381.794051     19.959847
EOF
